0 COSMOS 2200
1 22037U 92042D   13282.06962258  .00000044  00000-0  18335-3 0  7983
2 22037 082.5865 313.8269 0007822 041.4035 052.3775 12.63190499979332
0 COSMOS 2200
1 22037U 92042D   13284.13108233  .00000064  00000-0  29607-3 0  7995
2 22037 082.5861 312.5108 0007751 037.0275 066.5344 12.63190462979591
0 COSMOS 2200
1 22037U 92042D   13286.18214264  .00000050  00000-0  21719-3 0  8008
2 22037 082.5857 311.2012 0007668 032.6104 033.4637 12.63190643979853
0 COSMOS 2200
1 22037U 92042D   13288.50160131  .00000038  00000-0  15121-3 0  8016
2 22037 082.5853 309.7199 0007576 027.4860 141.0302 12.63191020980145
0 COSMOS 2200
1 22037U 92042D   13290.69732333  .00000002  00000-0 -46878-4 0  8025
2 22037 082.5854 308.3175 0007474 022.8647 045.6861 12.63191101980424
0 COSMOS 2200
1 22037U 92042D   13292.75291645  .00000022  00000-0  62110-4 0  8039
2 22037 082.5855 307.0046 0007394 018.2466 033.4246 12.63191145980685
0 COSMOS 2200
1 22037U 92042D   13295.13178792  .00000040  00000-0  16005-3 0  8043
2 22037 082.5855 305.4853 0007327 012.7186 051.4436 12.63191050980986
